#dP2024  8  8  0  0  0.00000000      96 __u+U IGS20 EXT  IAC
## 2326 345600.00000000   900.00000000 60530 0.0000000000000
+   53   G02G03G04G05G06G07G08G09G10G11G12G13G14G15G16G17G18
+        G19G20G21G22G23G24G25G26G27G28G29G30G31G32R01R02R03
+        R04R05R07R08R09R11R12R14R15R16R17R18R19R20R21R22R24
+        R25R26  0  0  0  0  0  0  0  0  0  0  0  0  0  0  0
+          0  0  0  0  0  0  0  0  0  0  0  0  0  0  0  0  0
++         8  8  7  8  7  9  8  8  9  6  7  7  8  9  7  8  8
++         7  8  8  8 10  9 10  7  9  9  7  7  9  7 10  8  6
++         8  8  8  9  8  9  8  8  8  8  7  7  8  9  8  9 10
++         8  7  0  0  0  0  0  0  0  0  0  0  0  0  0  0  0
++         0  0  0  0  0  0  0  0  0  0  0  0  0  0  0  0  0
%c M  cc GPS ccc cccc cccc cccc cccc ccccc ccccc ccccc ccccc
%c cc cc ccc ccc cccc cccc cccc cccc ccccc ccccc ccccc ccccc
%f  0.0000000  0.000000000  0.00000000000  0.000000000000000
%f  0.0000000  0.000000000  0.00000000000  0.000000000000000
%i    0    0    0    0      0      0      0      0         0
%i    0    0    0    0      0      0      0      0         0
/* IAC                                ULTRA-RAPID PREDICTION
/* S/V CLOCKS ARE ALIGNED TO GNSS TIME                      
/* G:C1WC2W R:C1PC2P E:C1XC5X C:C2IC6I J:C1CC2S             
/* PCV:IGS20_2317 OL/AL:FES2004  NONE     YN ORB:CoN CLK:CoN
*  2024 08 08 22  0  0.00000000
PG02 -17517.151074  -4573.500420  20012.334592   -382.849186
PG03 -19956.304398   8634.367086  15006.814298    492.284361
PG04 -25715.428187   -187.005794  -6916.834058    420.334733
PG05  13473.681839   6993.509244 -21983.098869   -182.556802
PG06   4158.045552  25190.912121   7178.963033    110.702999
PG07  -9688.828448  14069.940909 -19691.448899    -54.959262
PG08 -25543.966147  -6601.871028  -4771.438462    308.035818
PG09 -19268.957579   8811.743295 -16137.832267    306.287527
PG10   7847.578628 -22261.145743  12046.803647    -88.445245
PG11  12450.052277  22434.326123  -6970.776795   -718.521257
PG12  20052.956837  -4600.225402  16492.262216   -528.845404
PG13  20088.401357  13977.759892 -10833.359486    669.636644
PG14 -11270.346034  22458.826973   8294.353994    467.964021
PG15  25975.989158   3858.257758  -5082.204700    190.397456
PG16 -10236.879950 -11489.122469 -21966.502540   -213.909885
PG17  -4833.805337  14526.927992  22131.613474    659.375367
PG18   9149.448697 -14719.666262 -20045.679275   -644.478730
PG19   5610.229736  16048.033880  20350.863086    521.920603
PG20   6762.867583  16529.326100 -19639.870091    371.883246
PG21 -18410.843117 -10872.085044  16807.595813    104.072284
PG22  -5397.284596  21221.572116  15651.871190    -49.098991
PG23  16203.189601 -20895.020383   -175.829352    292.874416
PG24  18183.163727   6958.115086  17809.521567   -485.793177
PG25  19657.708108 -15356.269912   8398.627522    499.164487
PG26   -914.333200 -20631.439174 -16650.036279    104.337493
PG27 -18818.276532 -12909.865710 -14226.510637    -32.734489
PG28  -3343.355859 -24670.716372   9241.507580   -364.861343
PG29  22311.198895  -4421.849700 -13865.014057   -585.159130
PG30  -2095.477439  22518.146571 -13559.669351   -343.415228
PG31 -10522.380697 -24040.600835  -2588.243922   -226.062246
PG32   1940.904073 -15151.313932  21943.792770   -607.155849
PR01  21181.999617 -10054.896001  10055.951447     93.911013
PR02   6799.718568 -11650.925009  21674.097049    -24.044842
PR03 -12109.083437  -7568.877306  21193.771407    105.272854
PR04 -23774.753691    429.528873   9278.456715    249.027635
PR05 -22939.382889   8159.033362  -7642.758804    135.808773
PR07  12635.651330   7311.359122 -20866.909499     88.400235
PR08  23847.161997   -770.268986  -8916.752760     -6.298167
PR09  -5726.376179  24673.590540   2631.441999    202.301029
PR11  10572.169231   2893.255875  23047.804299     15.507698
PR12  12648.805697 -16710.031598  14564.874886     43.409362
PR14  -3426.469755 -18061.352102 -17676.741789     26.802422
PR15 -11180.834106  -1201.372864 -22869.626339     77.045893
PR16 -12496.018435  16634.864335 -14715.161057     28.079078
PR17 -15875.834173 -19737.823002  -2767.085178    111.808002
PR18 -18283.585128 -11906.577118  13260.100451    156.069114
PR19 -12606.835477    211.241294  22168.795707   -286.876784
PR20   2924.177669  16938.453155  18840.191302   -117.374144
PR21  15500.330468  20009.166493   3320.086628   -124.373416
PR22  17995.458917  11299.796370 -14084.117787     73.301505
PR24  -3851.050193 -17307.681822 -18311.514336    -67.032970
PR25  15249.648059  20323.631600   2419.790075    -99.877277
PR26  23334.522263   -147.261541 -10311.219512      8.626599
*  2024 08 08 22 15  0.00000000
PG02 -18415.525485  -6484.331437  18622.813733   -382.842402
PG03 -18934.672498   7075.432574  17002.537357    492.297980
PG04 -26303.522394   -508.968796  -4152.752715    420.341445
PG05  12073.426398   9035.332180 -22046.221212   -182.558035
PG06   3644.009337  24354.586668   9872.883279    110.681240
PG07 -10735.055934  11878.684765 -20591.069942    -54.953697
PG08 -24845.343393  -6774.124206  -7470.644917    308.049197
PG09 -20955.569417   8458.032282 -14088.347693    306.301379
PG10   8725.697204 -23115.086506   9494.796702    -88.455029
PG11  12456.649339  23114.274106  -4203.246861   -718.526522
PG12  18833.095623  -2962.461175  18193.815993   -528.848124
PG13  18755.882110  13782.927913 -13232.285421    669.638644
PG14 -12002.291699  22894.883027   5610.988838    467.971886
PG15  25309.946674   4166.644555  -7750.684825    190.401267
PG16  -8573.585920 -13257.684875 -21636.220885   -213.900524
PG17  -7207.810724  14058.932802  21793.228272    659.367153
PG18  10099.660435 -12561.984623 -21050.959262   -644.481756
PG19   3261.498585  15552.077304  21186.427751    521.925271
PG20   5660.729448  18413.885882 -18282.569485    371.882857
PG21 -19120.681307 -12427.944387  14859.824866    104.070289
PG22  -6593.423066  22289.668096  13532.484996    -49.102810
PG23  16268.582721 -20614.862219  -3074.337289    292.882234
PG24  18976.711452   8817.300064  16157.489629   -485.793981
PG25  19201.151418 -14253.830029  10939.705228    499.164671
PG26    258.855766 -22010.344923 -14749.898762    104.330704
PG27 -17129.354084 -12860.813692 -16261.710368    -32.735013
PG28  -2640.716262 -23670.381176  11743.834171   -364.874973
PG29  23686.946068  -3960.029746 -11528.222739   -585.157222
PG30  -2994.758133  21042.748706 -15608.920315   -343.409218
PG31 -10280.818144 -24254.233355    273.576629   -226.061966
PG32   4377.934539 -14845.543947  21782.288153   -607.153491
PR01  22163.807952 -10471.265186   7075.608936     93.912047
PR02   9300.041795 -12313.610110  20329.639182    -24.045024
PR03  -9501.624246  -8153.824149  22275.572131    105.273484
PR04 -22454.747623    283.495929  12137.804784    249.029229
PR05 -23631.821704   8501.537043  -4530.437113    135.809533
PR07  10041.071402   7891.057341 -22035.122582     88.400966
PR08  22562.201228   -602.021002 -11794.579680     -6.298149
PR09  -5675.283582  24815.732740   -555.173883    202.302897
PR11   9827.564225   5623.079686  22870.561203     15.506519
PR12  12030.581052 -14873.140625  16898.876347     43.409745
PR14  -2965.103381 -20057.596676 -15474.835489     26.802510
PR15 -10408.411355  -3925.384556 -22929.578938     77.045535
PR16 -11866.405031  14771.206062 -17041.971454     28.079337
PR17 -15637.340285 -19220.045505  -5944.829969    111.810691
PR18 -19410.464531 -12857.260249  10479.364272    156.070821
PR19 -14420.589416  -1745.131894  20961.688157   -286.878230
PR20   1415.646854  15023.481440  20562.544332   -117.374684
PR21  15233.293327  19430.270018   6482.025045   -124.376270
PR22  19132.569833  12400.078535 -11410.185899     73.294690
PR24  -2274.757544 -15531.348162 -20083.052363    -67.034362
PR25  15034.767163  19856.136928   5581.291686    -99.878393
PR26  21897.304640     67.933885 -13084.707803      8.628395
EOF
